[{"OBJECT_NAME":"GEISAT PRECURSOR","OBJECT_ID":"2023-084C","EPOCH":"2026-03-09T22:20:25.833120","MEAN_MOTION":15.33054389,"ECCENTRICITY":0.00051675,"INCLINATION":97.6055,"RA_OF_ASC_NODE":206.8263,"ARG_OF_PERICENTER":345.1842,"MEAN_ANOMALY":14.9247,"EPHEMERIS_TYPE":0,"CLASSIFICATION_TYPE":"U","NORAD_CAT_ID":56934,"ELEMENT_SET_NO":999,"REV_AT_EPOCH":15231,"BSTAR":0.00033857167,"MEAN_MOTION_DOT":0.00010736,"MEAN_MOTION_DDOT":0},{"OBJECT_NAME":"STARLINK-32164","OBJECT_ID":"2024-131S","EPOCH":"2026-03-09T22:48:37.778400","MEAN_MOTION":15.301867,"ECCENTRICITY":0.00013434,"INCLINATION":53.1609,"RA_OF_ASC_NODE":51.5632,"ARG_OF_PERICENTER":88.1024,"MEAN_ANOMALY":272.0131,"EPHEMERIS_TYPE":0,"CLASSIFICATION_TYPE":"U","NORAD_CAT_ID":60271,"ELEMENT_SET_NO":999,"REV_AT_EPOCH":9165,"BSTAR":4.3623419e-5,"MEAN_MOTION_DOT":9.32e-6,"MEAN_MOTION_DDOT":0}]
